NORAD_CAT_ID,OBJECT_NAME,OBJECT_TYPE,EPOCH,MEAN_MOTION,ECCENTRICITY,INCLINATION,RA_OF_ASC_NODE,ARG_OF_PERICENTER,MEAN_ANOMALY,BSTAR,MEAN_MOTION_DOT,MEAN_MOTION_DDOT,TLE_LINE0,TLE_LINE1,TLE_LINE2,SEMIMAJOR_AXIS,PERIOD,APOGEE,PERIGEE,DECAYED
49728.0,STARLINK-3240,PAYLOAD,2022-07-17 16:07:36,15.08849632,0.0001539,53.218,14.2962,67.5042,292.6113,0.00010568,1.395e-05,0.0,0 STARLINK-3240,1 49728U 21115E   22198.67195000  .00001395  00000-0  10568-3 0  9991,2 49728  53.2180  14.2962 0001539  67.5042 292.6113 15.08849632 35566,6917.851,95.437,540.781,538.651,0.0
49728.0,STARLINK-3240,PAYLOAD,2022-07-17 17:42:59,15.08847911,0.0001405,53.2176,13.9983,61.7555,298.3579,7.7474e-05,9.46e-06,0.0,0 STARLINK-3240,1 49728U 21115E   22198.73819164  .00000946  00000-0  77474-4 0  9993,2 49728  53.2176  13.9983 0001405  61.7555 298.3579 15.08847911 34462,6917.856,95.437,540.693,538.749,0.0
49728.0,STARLINK-3240,PAYLOAD,2022-07-18 11:12:15,15.08839925,0.0001746,53.217,10.7281,63.1235,296.9935,-6.7768e-05,-1.366e-05,0.0,0 STARLINK-3240,1 49728U 21115E   22199.46684052 -.00001366  00000-0 -67768-4 0  9994,2 49728  53.2170  10.7281 0001746  63.1235 296.9935 15.08839925 34579,6917.880999999999,95.438,540.953,538.538,0.0
49728.0,STARLINK-3240,PAYLOAD,2022-07-18 19:09:10,15.08834789,0.0001446,53.2173,9.2399,66.6235,293.4909,-3.4007e-05,-8.29e-06,0.0,0 STARLINK-3240,1 49728U 21115E   22199.79804323 -.00000829  00000-0 -34007-4 0  9998,2 49728  53.2173   9.2399 0001446  66.6235 293.4909 15.08834789 35735,6917.896,95.438,540.762,538.761,0.0
49728.0,STARLINK-3240,PAYLOAD,2022-07-18 20:44:34,15.0883452,0.0001623,53.217,8.9433,59.9175,300.1978,-3.7582e-05,-8.86e-06,0.0,0 STARLINK-3240,1 49728U 21115E   22199.86428359 -.00000886  00000-0 -37582-4 0  9991,2 49728  53.2170   8.9433 0001623  59.9175 300.1978 15.08834520 34635,6917.897,95.438,540.885,538.639,0.0
49728.0,STARLINK-3240,PAYLOAD,2022-07-19 11:03:01,15.08844686,0.000149,53.2172,6.2665,62.7319,297.3825,7.6342e-05,9.27e-06,0.0,0 STARLINK-3240,1 49728U 21115E   22200.46043573  .00000927  00000-0  76342-4 0  9992,2 49728  53.2172   6.2665 0001490  62.7319 297.3825 15.08844686 35834,6917.866,95.437,540.762,538.7,0.0
49728.0,STARLINK-3240,PAYLOAD,2022-07-19 17:24:33,15.08857624,0.0001956,53.2172,5.0773,68.0451,292.0749,7.1715e-05,8.54e-06,0.0,0 STARLINK-3240,1 49728U 21115E   22200.72538823  .00000854  00000-0  71715-4 0  9996,2 49728  53.2172   5.0773 0001956  68.0451 292.0749 15.08857624 35871,6917.8269999999975,95.436,541.045,538.3380000000002,0.0
49728.0,STARLINK-3240,PAYLOAD,2022-07-19 20:35:19,15.08871155,0.0002008,53.2173,4.4825,82.6653,277.4567,-6.5284e-05,-1.328e-05,0.0,0 STARLINK-3240,1 49728U 21115E   22200.85785956 -.00001328  00000-0 -65284-4 0  9994,2 49728  53.2173   4.4825 0002008  82.6653 277.4567 15.08871155 34787,6917.785,95.436,541.039,538.261,0.0
49728.0,STARLINK-3240,PAYLOAD,2022-07-20 14:04:35,15.08841742,0.0001547,53.2166,1.2116,61.9142,298.2007,0.00019224,2.773e-05,0.0,0 STARLINK-3240,1 49728U 21115E   22201.58651802  .00002773  00000-0  19224-3 0  9992,2 49728  53.2166   1.2116 0001547  61.9142 298.2007 15.08841742 34898,6917.875,95.437,540.81,538.67,0.0
49728.0,STARLINK-3240,PAYLOAD,2022-07-20 20:26:07,15.08844407,0.0001546,53.2167,0.0219,61.9789,298.1359,0.00019503,2.818e-05,0.0,0 STARLINK-3240,1 49728U 21115E   22201.85147648  .00002818  00000-0  19503-3 0  9990,2 49728  53.2167   0.0219 0001546  61.9789 298.1359 15.08844407 36045,6917.8669999999975,95.437,540.8009999999998,538.6619999999998,0.0
49728.0,STARLINK-3240,PAYLOAD,2022-07-21 10:44:35,15.08838204,0.0001514,53.2164,357.3451,66.7694,293.3457,-8.0952e-05,-1.576e-05,0.0,0 STARLINK-3240,1 49728U 21115E   22202.44763874 -.00001576  00000-0 -80952-4 0  9990,2 49728  53.2164 357.3451 0001514  66.7694 293.3457 15.08838204 36135,6917.886,95.438,540.798,538.7040000000002,0.0
49728.0,STARLINK-3240,PAYLOAD,2022-07-21 20:16:55,15.08828177,0.0001551999999999,53.2165,355.5608,61.01,299.1047,-0.0002315,-3.969e-05,0.0,0 STARLINK-3240,1 49728U 21115E   22202.84508470 -.00003969  00000-0 -23150-3 0  9997,2 49728  53.2165 355.5608 0001552  61.0100 299.1047 15.08828177 35082,6917.917,95.438,540.855,538.7080000000002,0.0
49728.0,STARLINK-3240,PAYLOAD,2022-07-22 02:38:27,15.08836655,0.0001520999999999,53.2175,354.3722,59.6993,300.415,-0.00010833,-2.011e-05,0.0,0 STARLINK-3240,1 49728U 21115E   22203.11004570 -.00002011  00000-0 -10833-3 0  9991,2 49728  53.2175 354.3722 0001521  59.6993 300.4150 15.08836655 35122,6917.891,95.438,540.808,538.703,0.0
49728.0,STARLINK-3240,PAYLOAD,2022-07-22 20:07:42,15.08839695,0.0001521999999999,53.2177,351.1007,64.4532,295.6617,8.2599e-05,1.027e-05,0.0,0 STARLINK-3240,1 49728U 21115E   22203.83868171  .00001027  00000-0  82599-4 0  9998,2 49728  53.2177 351.1007 0001522  64.4532 295.6617 15.08839695 35231,6917.880999999999,95.438,540.799,538.693,0.0
49728.0,STARLINK-3240,PAYLOAD,2022-07-23 13:36:58,15.0877586,0.0002026,53.2178,347.8305,68.4001,291.7207,0.0010113,0.00015815,0.0,0 STARLINK-3240,1 49728U 21115E   22204.56734359  .00015815  00000-0  10113-2 0  9990,2 49728  53.2178 347.8305 0002026  68.4001 291.7207 15.08775860 35347,6918.076,95.442,541.3430000000002,538.54,0.0
49728.0,STARLINK-3240,PAYLOAD,2022-07-23 18:23:06,15.08844499,0.000166,53.2168,346.9382,58.455,301.6604,3.0134e-05,1.92e-06,0.0,0 STARLINK-3240,1 49728U 21115E   22204.76604228  .00000192  00000-0  30134-4 0  9992,2 49728  53.2168 346.9382 0001660  58.4550 301.6604 15.08844499 36485,6917.8669999999975,95.437,540.88,538.5830000000002,0.0
49728.0,STARLINK-3240,PAYLOAD,2022-07-23 19:58:29,15.08842829,0.0001617,53.2169,346.6408,62.1707,297.9449,0.00013084,1.795e-05,0.0,0 STARLINK-3240,1 49728U 21115E   22204.83228342  .00001795  00000-0  13084-3 0  9993,2 49728  53.2169 346.6408 0001617  62.1707 297.9449 15.08842829 35387,6917.871999999999,95.437,540.855,538.618,0.0
49728.0,STARLINK-3240,PAYLOAD,2022-07-24 02:20:02,15.08837302,0.0001653,53.2167,345.4512,60.2755,299.8401,8.2655e-05,1.028e-05,0.0,0 STARLINK-3240,1 49728U 21115E   22205.09724665  .00001028  00000-0  82655-4 0  9991,2 49728  53.2167 345.4512 0001653  60.2755 299.8401 15.08837302 36537,6917.889,95.438,540.8969999999998,538.61,0.0
49728.0,STARLINK-3240,PAYLOAD,2022-07-24 13:27:44,15.0883455,0.0001679,53.217,343.3697,61.4,298.7161,1.6095e-05,-3.2e-07,0.0,0 STARLINK-3240,1 49728U 21115E   22205.56092981 -.00000032  00000-0  16095-4 0  9992,2 49728  53.2170 343.3697 0001679  61.4000 298.7161 15.08834550 35493,6917.897,95.438,540.924,538.601,0.0
49728.0,STARLINK-3240,PAYLOAD,2022-07-24 18:13:53,15.08836521,0.0001654,53.2179,342.4778,60.8857,299.23,4.1827e-05,3.78e-06,0.0,0 STARLINK-3240,1 49728U 21115E   22205.75965260  .00000378  00000-0  41827-4 0  9995,2 49728  53.2179 342.4778 0001654  60.8857 299.2300 15.08836521 35523,6917.891,95.438,540.9,538.612,0.0
49728.0,STARLINK-3240,PAYLOAD,2022-07-25 11:43:09,15.08828022,0.0001698,53.2179,339.2067,60.9369,299.1793,-2.2545e-05,-6.47e-06,0.0,0 STARLINK-3240,1 49728U 21115E   22206.48830122 -.00000647  00000-0 -22545-4 0  9991,2 49728  53.2179 339.2067 0001698  60.9369 299.1793 15.08828022 35639,6917.917,95.438,540.957,538.607,0.0
49728.0,STARLINK-3240,PAYLOAD,2022-07-25 18:04:41,15.08824655,0.0001643,53.2181,338.0172,59.8167,300.2988,6.9061e-06,-1.78e-06,0.0,0 STARLINK-3240,1 49728U 21115E   22206.75326369 -.00000178  00000-0  69061-5 0  9997,2 49728  53.2181 338.0172 0001643  59.8167 300.2988 15.08824655 36784,6917.927,95.439,540.929,538.656,0.0
49728.0,STARLINK-3240,PAYLOAD,2022-07-25 19:40:05,15.08825203,0.0001604,53.2182,337.7198,59.8644,300.2507,3.2666e-05,2.32e-06,0.0,0 STARLINK-3240,1 49728U 21115E   22206.81950299  .00000232  00000-0  32666-4 0  9999,2 49728  53.2182 337.7198 0001604  59.8644 300.2507 15.08825203 35681,6917.926,95.438,540.9,538.681,0.0
49728.0,STARLINK-3240,PAYLOAD,2022-07-26 13:09:19,15.08832329,0.000151,53.2177,334.4486,58.9276,301.1864,8.3505e-05,1.041e-05,0.0,0 STARLINK-3240,1 49728U 21115E   22207.54814015  .00001041  00000-0  83505-4 0  9992,2 49728  53.2177 334.4486 0001510  58.9276 301.1864 15.08832329 35791,6917.904,95.438,540.813,538.724,0.0
49728.0,STARLINK-3240,PAYLOAD,2022-07-26 17:55:28,15.08834224,0.0001506999999999,53.2176,333.5566,57.0355,303.0782,8.8345e-05,1.118e-05,0.0,0 STARLINK-3240,1 49728U 21115E   22207.74685967  .00001118  00000-0  88345-4 0  9998,2 49728  53.2176 333.5566 0001507  57.0355 303.0782 15.08834224 36936,6917.898,95.438,540.806,538.721,0.0
49728.0,STARLINK-3240,PAYLOAD,2022-07-27 13:00:05,15.08839652,0.0001465999999999,53.2176,329.9886,56.584,303.5292,0.00018483,2.655e-05,0.0,0 STARLINK-3240,1 49728U 21115E   22208.54173417  .00002655  00000-0  18483-3 0  9991,2 49728  53.2176 329.9886 0001466  56.5840 303.5292 15.08839652 35948,6917.880999999999,95.438,540.761,538.732,0.0
49728.0,STARLINK-3240,PAYLOAD,2022-07-27 14:35:28,15.08840899,0.0001457,53.2176,329.6912,57.1232,302.99,0.00019485,2.815e-05,0.0,0 STARLINK-3240,1 49728U 21115E   22208.60797338  .00002815  00000-0  19485-3 0  9993,2 49728  53.2176 329.6912 0001457  57.1232 302.9900 15.08840899 37066,6917.878000000002,95.437,540.751,538.735,0.0
49728.0,STARLINK-3240,PAYLOAD,2022-07-27 17:46:15,15.0884432,0.0001460999999999,53.2176,329.0964,57.1022,303.011,0.00017635,2.52e-05,0.0,0 STARLINK-3240,1 49728U 21115E   22208.74045181  .00002520  00000-0  17635-3 0  9998,2 49728  53.2176 329.0964 0001461  57.1022 303.0110 15.08844320 35975,6917.8669999999975,95.437,540.743,538.721,0.0
49728.0,STARLINK-3240,PAYLOAD,2022-07-28 11:15:29,15.08841851,0.0001488,53.2177,325.8254,58.6404,301.4734,7.824600000000001e-05,9.58e-06,0.0,0 STARLINK-3240,1 49728U 21115E   22209.46909499  .00000958  00000-0  78246-4 0  9998,2 49728  53.2177 325.8254 0001488  58.6404 301.4734 15.08841851 36084,6917.875,95.437,540.769,538.71,0.0
